{
  "norad_id": 63580,
  "name": "STARLINK-33752",
  "history": [
    {
      "epoch": "2026-03-28T19:29:48.285024Z",
      "apogee_km": 484.74253160084754,
      "perigee_km": 480.9637726646597,
      "latitude_deg": 1.8700622106653658e-05,
      "longitude_deg": 95.14169354845372,
      "height_km": 482.3076029239796,
      "semi_major_axis_km": 6860.990152132754,
      "eccentricity": 0.00027538,
      "inclination_deg": 43.0039,
      "raan_deg": 213.8203,
      "arg_perigee_deg": 279.8647,
      "mean_anomaly_deg": 80.1894,
      "mean_motion_rev_day": 15.2764544
    },
    {
      "epoch": "2026-03-30T01:18:47.225664Z",
      "apogee_km": 484.2395957512672,
      "perigee_km": 481.9150163443783,
      "latitude_deg": 3.59359084006776e-06,
      "longitude_deg": -0.3454229650699498,
      "height_km": 482.7769071713783,
      "semi_major_axis_km": 6861.214306047822,
      "eccentricity": 0.0001694,
      "inclination_deg": 43.0034,
      "raan_deg": 206.8033,
      "arg_perigee_deg": 273.8344,
      "mean_anomaly_deg": 86.2314,
      "mean_motion_rev_day": 15.27570579
    },
    {
      "epoch": "2026-03-30T01:18:47.226528Z",
      "apogee_km": 484.2395271391233,
      "perigee_km": 481.91508495652033,
      "latitude_deg": 2.809032226915558e-06,
      "longitude_deg": -0.345427411515826,
      "height_km": 482.7769117589772,
      "semi_major_axis_km": 6861.214306047822,
      "eccentricity": 0.00016939,
      "inclination_deg": 43.0034,
      "raan_deg": 206.8033,
      "arg_perigee_deg": 273.8344,
      "mean_anomaly_deg": 86.2314,
      "mean_motion_rev_day": 15.27570579
    },
    {
      "epoch": "2026-03-30T13:52:02.858304Z",
      "apogee_km": 483.7816725874536,
      "perigee_km": 482.34370235695405,
      "latitude_deg": -2.2305807715935257e-05,
      "longitude_deg": 167.8677255000499,
      "height_km": 483.12256586969755,
      "semi_major_axis_km": 6861.199687472204,
      "eccentricity": 0.00010479,
      "inclination_deg": 43.0025,
      "raan_deg": 203.8472,
      "arg_perigee_deg": 246.7938,
      "mean_anomaly_deg": 113.2803,
      "mean_motion_rev_day": 15.27575461
    },
    {
      "epoch": "2026-03-30T18:34:30.989856Z",
      "apogee_km": 483.9974027716016,
      "perigee_km": 482.02015778064197,
      "latitude_deg": -4.122372766773277e-05,
      "longitude_deg": 95.95254769026094,
      "height_km": 482.7560030692291,
      "semi_major_axis_km": 6861.1457802761215,
      "eccentricity": 0.00014409,
      "inclination_deg": 43.0029,
      "raan_deg": 202.7426,
      "arg_perigee_deg": 271.7298,
      "mean_anomaly_deg": 88.3388,
      "mean_motion_rev_day": 15.27593464
    },
    {
      "epoch": "2026-03-31T07:07:46.206912Z",
      "apogee_km": 483.4548430297373,
      "perigee_km": 482.5244742548257,
      "latitude_deg": 6.117256371828877e-06,
      "longitude_deg": -95.83048933008202,
      "height_km": 482.7728883600683,
      "semi_major_axis_km": 6861.126658642281,
      "eccentricity": 6.78e-05,
      "inclination_deg": 42.9994,
      "raan_deg": 199.7885,
      "arg_perigee_deg": 269.1092,
      "mean_anomaly_deg": 90.9682,
      "mean_motion_rev_day": 15.2759985
    },
    {
      "epoch": "2026-04-01T17:39:12.872160Z",
      "apogee_km": 483.9815731923718,
      "perigee_km": 482.0261480470954,
      "latitude_deg": -6.38710077474532e-06,
      "longitude_deg": 96.76644070409084,
      "height_km": 482.6009650975377,
      "semi_major_axis_km": 6861.140860619734,
      "eccentricity": 0.0001425,
      "inclination_deg": 43.0021,
      "raan_deg": 191.6644,
      "arg_perigee_deg": 280.6003,
      "mean_anomaly_deg": 79.4688,
      "mean_motion_rev_day": 15.27595107
    },
    {
      "epoch": "2026-04-02T17:11:32.937216Z",
      "apogee_km": 483.648940035182,
      "perigee_km": 482.2067442053676,
      "latitude_deg": 3.074599165113656e-06,
      "longitude_deg": 97.17893866178038,
      "height_km": 482.4332244812463,
      "semi_major_axis_km": 6861.064842120274,
      "eccentricity": 0.0001051,
      "inclination_deg": 43.0003,
      "raan_deg": 186.1272,
      "arg_perigee_deg": 292.0766,
      "mean_anomaly_deg": 67.9974,
      "mean_motion_rev_day": 15.27620495
    },
    {
      "epoch": "2026-04-02T17:11:32.938080Z",
      "apogee_km": 483.6490086458298,
      "perigee_km": 482.20667559471894,
      "latitude_deg": 3.8035489082869994e-06,
      "longitude_deg": 97.17893582929702,
      "height_km": 482.43319869787666,
      "semi_major_axis_km": 6861.064842120274,
      "eccentricity": 0.00010511,
      "inclination_deg": 43.0003,
      "raan_deg": 186.1272,
      "arg_perigee_deg": 292.0766,
      "mean_anomaly_deg": 67.9974,
      "mean_motion_rev_day": 15.27620495
    },
    {
      "epoch": "2026-04-03T15:09:45.040320Z",
      "apogee_km": 484.20155254657584,
      "perigee_km": 481.9853751067594,
      "latitude_deg": 8.203058462631504e-06,
      "longitude_deg": 121.55413766692645,
      "height_km": 483.41854675501526,
      "semi_major_axis_km": 6861.230463826668,
      "eccentricity": 0.0001615,
      "inclination_deg": 42.9982,
      "raan_deg": 180.9551,
      "arg_perigee_deg": 240.3212,
      "mean_anomaly_deg": 119.7479,
      "mean_motion_rev_day": 15.27565183
    },
    {
      "epoch": "2026-04-04T06:51:19.896480Z",
      "apogee_km": 483.93700375127537,
      "perigee_km": 482.13896423497044,
      "latitude_deg": 1.2418488153925148e-05,
      "longitude_deg": -118.1781813876944,
      "height_km": 482.75242065260466,
      "semi_major_axis_km": 6861.174983993123,
      "eccentricity": 0.00013103,
      "inclination_deg": 43.0014,
      "raan_deg": 177.2625,
      "arg_perigee_deg": 273.9769,
      "mean_anomaly_deg": 86.0933,
      "mean_motion_rev_day": 15.27583711
    },
    {
      "epoch": "2026-04-05T14:14:27.172320Z",
      "apogee_km": 484.1385534325773,
      "perigee_km": 481.8784920973785,
      "latitude_deg": 3.823424955407364e-05,
      "longitude_deg": 122.36637769550066,
      "height_km": 482.9693313583914,
      "semi_major_axis_km": 6861.145522764978,
      "eccentricity": 0.0001647,
      "inclination_deg": 43.0017,
      "raan_deg": 169.8763,
      "arg_perigee_deg": 260.641,
      "mean_anomaly_deg": 99.4256,
      "mean_motion_rev_day": 15.2759355
    },
    {
      "epoch": "2026-04-05T14:14:27.173184Z",
      "apogee_km": 484.1385534325773,
      "perigee_km": 481.8784920973785,
      "latitude_deg": 3.823424955329006e-05,
      "longitude_deg": 122.36637408564485,
      "height_km": 482.96933135839043,
      "semi_major_axis_km": 6861.145522764978,
      "eccentricity": 0.0001647,
      "inclination_deg": 43.0017,
      "raan_deg": 169.8763,
      "arg_perigee_deg": 260.641,
      "mean_anomaly_deg": 99.4256,
      "mean_motion_rev_day": 15.2759355
    },
    {
      "epoch": "2026-04-06T05:56:01.027104Z",
      "apogee_km": 483.66688874873216,
      "perigee_km": 482.31456047421216,
      "latitude_deg": 2.502556439967397e-05,
      "longitude_deg": -117.36527715423182,
      "height_km": 483.35327380330006,
      "semi_major_axis_km": 6861.127724611472,
      "eccentricity": 9.855e-05,
      "inclination_deg": 42.9978,
      "raan_deg": 166.1802,
      "arg_perigee_deg": 209.7591,
      "mean_anomaly_deg": 150.3205,
      "mean_motion_rev_day": 15.27599494
    },
    {
      "epoch": "2026-04-07T13:19:08.008320Z",
      "apogee_km": 483.99268284846767,
      "perigee_km": 481.9892334846827,
      "latitude_deg": -2.816297887628426e-05,
      "longitude_deg": 123.18482688335683,
      "height_km": 482.80187819471683,
      "semi_major_axis_km": 6861.127958166575,
      "eccentricity": 0.000146,
      "inclination_deg": 43.0005,
      "raan_deg": 158.7984,
      "arg_perigee_deg": 268.0482,
      "mean_anomaly_deg": 92.0202,
      "mean_motion_rev_day": 15.27599416
    },
    {
      "epoch": "2026-04-07T13:19:08.009184Z",
      "apogee_km": 483.9929572935853,
      "perigee_km": 481.9889590395651,
      "latitude_deg": 4.358919386916029e-05,
      "longitude_deg": 123.18489979176783,
      "height_km": 482.8018786425374,
      "semi_major_axis_km": 6861.127958166575,
      "eccentricity": 0.00014604,
      "inclination_deg": 43.0005,
      "raan_deg": 158.7984,
      "arg_perigee_deg": 268.0483,
      "mean_anomaly_deg": 92.0202,
      "mean_motion_rev_day": 15.27599416
    },
    {
      "epoch": "2026-04-08T05:00:42.285600Z",
      "apogee_km": 483.71672139161365,
      "perigee_km": 482.4166605162527,
      "latitude_deg": -4.5843395745541375e-06,
      "longitude_deg": -116.54735456794509,
      "height_km": 483.11536437808553,
      "semi_major_axis_km": 6861.203690953933,
      "eccentricity": 9.474e-05,
      "inclination_deg": 42.9979,
      "raan_deg": 155.1035,
      "arg_perigee_deg": 245.1948,
      "mean_anomaly_deg": 114.8805,
      "mean_motion_rev_day": 15.27574124
    },
    {
      "epoch": "2026-04-09T20:14:36.998592Z",
      "apogee_km": 484.22596149457604,
      "perigee_km": 481.754583451032,
      "latitude_deg": -5.817977452957335e-05,
      "longitude_deg": 4.133717149659462,
      "height_km": 482.86039603582805,
      "semi_major_axis_km": 6861.127272472804,
      "eccentricity": 0.0001801,
      "inclination_deg": 43.0014,
      "raan_deg": 145.8738,
      "arg_perigee_deg": 265.6857,
      "mean_anomaly_deg": 94.3788,
      "mean_motion_rev_day": 15.27599645
    },
    {
      "epoch": "2026-04-10T11:56:10.618368Z",
      "apogee_km": 483.90318773236504,
      "perigee_km": 482.0822439057865,
      "latitude_deg": -1.4401797416832793e-06,
      "longitude_deg": 124.40671846936769,
      "height_km": 482.83814672539944,
      "semi_major_axis_km": 6861.1297158190755,
      "eccentricity": 0.0001327,
      "inclination_deg": 43.0023,
      "raan_deg": 142.1813,
      "arg_perigee_deg": 265.6822,
      "mean_anomaly_deg": 94.3878,
      "mean_motion_rev_day": 15.27598829
    }
  ]
}